CYGFM04                 
1 41885U 16078B   17345.45499743  .00000420  00000-0  24148-4 0  9992
2 41885  34.9509   3.8754 0014271 125.8951 234.3087 15.14320567 54731
